ONEWEB-0273             
1 48991U 21060AA  25210.30408949  .00000113  00000+0  26178-3 0  9998
2 48991  87.9047 293.1426 0002015  92.8208 267.3154 13.16595909197106
ONEWEB-0274             
1 48992U 21060AB  25210.78540881 -.00000107  00000+0 -31440-3 0  9996
2 48992  87.9045 293.0811 0002397 102.9091 257.2307 13.16593208198501
ONEWEB-0275             
1 48993U 21060AC  25210.47034172  .00000049  00000+0  94139-4 0  9992
2 48993  87.9050 293.1049 0002124  97.5868 262.5504 13.16594721197093
ONEWEB-0276             
1 48994U 21060AD  25210.50357895  .00000113  00000+0  26095-3 0  9994
2 48994  87.9049 293.0953 0001928  93.9437 266.1914 13.16596523197118
ONEWEB-0277             
1 48995U 21060AE  25210.51625403  .00000201  00000+0  49318-3 0  9990
2 48995  87.9046 293.1273 0002348  91.1383 269.0017 13.16596165197106
ONEWEB-0278             
1 48996U 21060AF  25210.50674696  .00000098  00000+0  22256-3 0  9994
2 48996  87.9049 293.0913 0001773  97.2378 262.8955 13.16595628197231
ONEWEB-0279             
1 48997U 21060AG  25210.74265980  .00000028  00000+0  38801-4 0  9990
2 48997  87.9048 293.0402 0002321  94.8994 265.2402 13.16593184198499
ONEWEB-0280             
1 48998U 21060AH  25210.52970505  .00000162  00000+0  38956-3 0  9992
2 48998  87.9051 293.0895 0001935  87.6372 272.4981 13.16593889197101
ONEWEB-0281             
1 48999U 21060AJ  25210.23126377  .00000120  00000+0  28102-3 0  9997
2 48999  87.9050 293.1464 0002134 102.0023 258.1348 13.16594553197131
ONEWEB-0282             
1 49000U 21060AK  25210.79332241 -.00000102  00000+0 -30065-3 0  9994
2 49000  87.9042 293.0454 0002063  93.4135 266.7232 13.16595882198507
ONEWEB-0283             
1 49001U 21060AL  25210.47824715 -.00000156  00000+0 -44244-3 0  9995
2 49001  87.9045 293.1116 0002219  94.5519 265.5865 13.16594466197154
ONEWEB-0284             
1 49002U 21060AM  25210.47191206  .00000138  00000+0  32636-3 0  9998
2 49002  87.9060 293.0873 0001698  94.1480 265.9845 13.16596914197134
ONEWEB-0285             
1 49075U 21075A   25210.57710710 -.00000378  00000+0 -10872-2 0  9997
2 49075  87.8847  54.7973 0001692  82.5133 277.6188 13.12447266192898
ONEWEB-0286             
1 49076U 21075B   25210.86391906  .00000475  00000+0  12851-2 0  9997
2 49076  87.8869  54.7674 0001670  91.0423 269.0897 13.12442667193268
ONEWEB-0287             
1 49077U 21075C   25210.58981725  .00000080  00000+0  17222-3 0  9991
2 49077  87.9045  70.0703 0001420  93.0774 267.0520 13.17650278191144
ONEWEB-0288             
1 49078U 21075D   25210.53477580 -.00000100  00000+0 -31263-3 0  9992
2 49078  87.8853  54.7988 0001602  84.1758 275.9553 13.12443539192869
ONEWEB-0289             
1 49079U 21075E   25210.54675322 -.00000028  00000+0 -10702-3 0  9992
2 49079  87.9030  70.1087 0001606  66.1459 293.9841 13.17098386191716
