[{"OBJECT_NAME":"ONEWEB-0273","OBJECT_ID":"2021-060AA","EPOCH":"2025-07-29T07:17:53.331936","MEAN_MOTION":13.16595909,"ECCENTRICITY":0.0002015,"INCLINATION":87.9047,"RA_OF_ASC_NODE":293.1426,"ARG_OF_PERICENTER":92.8208,"MEAN_ANOMALY":267.3154,"EPHEMERIS_TYPE":0,"CLASSIFICATION_TYPE":"U","NORAD_CAT_ID":48991,"ELEMENT_SET_NO":999,"REV_AT_EPOCH":19710,"BSTAR":0.00026178,"MEAN_MOTION_DOT":1.13e-6,"MEAN_MOTION_DDOT":0},{"OBJECT_NAME":"ONEWEB-0274","OBJECT_ID":"2021-060AB","EPOCH":"2025-07-29T18:50:59.321184","MEAN_MOTION":13.16593208,"ECCENTRICITY":0.0002397,"INCLINATION":87.9045,"RA_OF_ASC_NODE":293.0811,"ARG_OF_PERICENTER":102.9091,"MEAN_ANOMALY":257.2307,"EPHEMERIS_TYPE":0,"CLASSIFICATION_TYPE":"U","NORAD_CAT_ID":48992,"ELEMENT_SET_NO":999,"REV_AT_EPOCH":19850,"BSTAR":-0.0003144,"MEAN_MOTION_DOT":-1.07e-6,"MEAN_MOTION_DDOT":0},{"OBJECT_NAME":"ONEWEB-0275","OBJECT_ID":"2021-060AC","EPOCH":"2025-07-29T11:17:17.524608","MEAN_MOTION":13.16594721,"ECCENTRICITY":0.0002124,"INCLINATION":87.905,"RA_OF_ASC_NODE":293.1049,"ARG_OF_PERICENTER":97.5868,"MEAN_ANOMALY":262.5504,"EPHEMERIS_TYPE":0,"CLASSIFICATION_TYPE":"U","NORAD_CAT_ID":48993,"ELEMENT_SET_NO":999,"REV_AT_EPOCH":19709,"BSTAR":9.4139e-5,"MEAN_MOTION_DOT":4.9e-7,"MEAN_MOTION_DDOT":0},{"OBJECT_NAME":"ONEWEB-0276","OBJECT_ID":"2021-060AD","EPOCH":"2025-07-29T12:05:09.221280","MEAN_MOTION":13.16596523,"ECCENTRICITY":0.0001928,"INCLINATION":87.9049,"RA_OF_ASC_NODE":293.0953,"ARG_OF_PERICENTER":93.9437,"MEAN_ANOMALY":266.1914,"EPHEMERIS_TYPE":0,"CLASSIFICATION_TYPE":"U","NORAD_CAT_ID":48994,"ELEMENT_SET_NO":999,"REV_AT_EPOCH":19711,"BSTAR":0.00026095,"MEAN_MOTION_DOT":1.13e-6,"MEAN_MOTION_DDOT":0},{"OBJECT_NAME":"ONEWEB-0277","OBJECT_ID":"2021-060AE","EPOCH":"2025-07-29T12:23:24.348192","MEAN_MOTION":13.16596165,"ECCENTRICITY":0.0002348,"INCLINATION":87.9046,"RA_OF_ASC_NODE":293.1273,"ARG_OF_PERICENTER":91.1383,"MEAN_ANOMALY":269.0017,"EPHEMERIS_TYPE":0,"CLASSIFICATION_TYPE":"U","NORAD_CAT_ID":48995,"ELEMENT_SET_NO":999,"REV_AT_EPOCH":19710,"BSTAR":0.00049318,"MEAN_MOTION_DOT":2.01e-6,"MEAN_MOTION_DDOT":0},{"OBJECT_NAME":"ONEWEB-0278","OBJECT_ID":"2021-060AF","EPOCH":"2025-07-29T12:09:42.937344","MEAN_MOTION":13.16595628,"ECCENTRICITY":0.0001773,"INCLINATION":87.9049,"RA_OF_ASC_NODE":293.0913,"ARG_OF_PERICENTER":97.2378,"MEAN_ANOMALY":262.8955,"EPHEMERIS_TYPE":0,"CLASSIFICATION_TYPE":"U","NORAD_CAT_ID":48996,"ELEMENT_SET_NO":999,"REV_AT_EPOCH":19723,"BSTAR":0.00022256,"MEAN_MOTION_DOT":9.8e-7,"MEAN_MOTION_DDOT":0},{"OBJECT_NAME":"ONEWEB-0279","OBJECT_ID":"2021-060AG","EPOCH":"2025-07-29T17:49:25.806720","MEAN_MOTION":13.16593184,"ECCENTRICITY":0.0002321,"INCLINATION":87.9048,"RA_OF_ASC_NODE":293.0402,"ARG_OF_PERICENTER":94.8994,"MEAN_ANOMALY":265.2402,"EPHEMERIS_TYPE":0,"CLASSIFICATION_TYPE":"U","NORAD_CAT_ID":48997,"ELEMENT_SET_NO":999,"REV_AT_EPOCH":19849,"BSTAR":3.8801e-5,"MEAN_MOTION_DOT":2.8e-7,"MEAN_MOTION_DDOT":0},{"OBJECT_NAME":"ONEWEB-0280","OBJECT_ID":"2021-060AH","EPOCH":"2025-07-29T12:42:46.516320","MEAN_MOTION":13.16593889,"ECCENTRICITY":0.0001935,"INCLINATION":87.9051,"RA_OF_ASC_NODE":293.0895,"ARG_OF_PERICENTER":87.6372,"MEAN_ANOMALY":272.4981,"EPHEMERIS_TYPE":0,"CLASSIFICATION_TYPE":"U","NORAD_CAT_ID":48998,"ELEMENT_SET_NO":999,"REV_AT_EPOCH":19710,"BSTAR":0.00038956,"MEAN_MOTION_DOT":1.62e-6,"MEAN_MOTION_DDOT":0},{"OBJECT_NAME":"ONEWEB-0281","OBJECT_ID":"2021-060AJ","EPOCH":"2025-07-29T05:33:01.189728","MEAN_MOTION":13.16594553,"ECCENTRICITY":0.0002134,"INCLINATION":87.905,"RA_OF_ASC_NODE":293.1464,"ARG_OF_PERICENTER":102.0023,"MEAN_ANOMALY":258.1348,"EPHEMERIS_TYPE":0,"CLASSIFICATION_TYPE":"U","NORAD_CAT_ID":48999,"ELEMENT_SET_NO":999,"REV_AT_EPOCH":19713,"BSTAR":0.00028102,"MEAN_MOTION_DOT":1.2e-6,"MEAN_MOTION_DDOT":0},{"OBJECT_NAME":"ONEWEB-0282","OBJECT_ID":"2021-060AK","EPOCH":"2025-07-29T19:02:23.056224","MEAN_MOTION":13.16595882,"ECCENTRICITY":0.0002063,"INCLINATION":87.9042,"RA_OF_ASC_NODE":293.0454,"ARG_OF_PERICENTER":93.4135,"MEAN_ANOMALY":266.7232,"EPHEMERIS_TYPE":0,"CLASSIFICATION_TYPE":"U","NORAD_CAT_ID":49000,"ELEMENT_SET_NO":999,"REV_AT_EPOCH":19850,"BSTAR":-0.00030065,"MEAN_MOTION_DOT":-1.02e-6,"MEAN_MOTION_DDOT":0},{"OBJECT_NAME":"ONEWEB-0283","OBJECT_ID":"2021-060AL","EPOCH":"2025-07-29T11:28:40.553760","MEAN_MOTION":13.16594466,"ECCENTRICITY":0.0002219,"INCLINATION":87.9045,"RA_OF_ASC_NODE":293.1116,"ARG_OF_PERICENTER":94.5519,"MEAN_ANOMALY":265.5865,"EPHEMERIS_TYPE":0,"CLASSIFICATION_TYPE":"U","NORAD_CAT_ID":49001,"ELEMENT_SET_NO":999,"REV_AT_EPOCH":19715,"BSTAR":-0.00044244,"MEAN_MOTION_DOT":-1.56e-6,"MEAN_MOTION_DDOT":0},{"OBJECT_NAME":"ONEWEB-0284","OBJECT_ID":"2021-060AM","EPOCH":"2025-07-29T11:19:33.201984","MEAN_MOTION":13.16596914,"ECCENTRICITY":0.0001698,"INCLINATION":87.906,"RA_OF_ASC_NODE":293.0873,"ARG_OF_PERICENTER":94.148,"MEAN_ANOMALY":265.9845,"EPHEMERIS_TYPE":0,"CLASSIFICATION_TYPE":"U","NORAD_CAT_ID":49002,"ELEMENT_SET_NO":999,"REV_AT_EPOCH":19713,"BSTAR":0.00032636,"MEAN_MOTION_DOT":1.38e-6,"MEAN_MOTION_DDOT":0},{"OBJECT_NAME":"ONEWEB-0285","OBJECT_ID":"2021-075A","EPOCH":"2025-07-29T13:51:02.053440","MEAN_MOTION":13.12447266,"ECCENTRICITY":0.0001692,"INCLINATION":87.8847,"RA_OF_ASC_NODE":54.7973,"ARG_OF_PERICENTER":82.5133,"MEAN_ANOMALY":277.6188,"EPHEMERIS_TYPE":0,"CLASSIFICATION_TYPE":"U","NORAD_CAT_ID":49075,"ELEMENT_SET_NO":999,"REV_AT_EPOCH":19289,"BSTAR":-0.0010872,"MEAN_MOTION_DOT":-3.78e-6,"MEAN_MOTION_DDOT":0},{"OBJECT_NAME":"ONEWEB-0286","OBJECT_ID":"2021-075B","EPOCH":"2025-07-29T20:44:02.606784","MEAN_MOTION":13.12442667,"ECCENTRICITY":0.000167,"INCLINATION":87.8869,"RA_OF_ASC_NODE":54.7674,"ARG_OF_PERICENTER":91.0423,"MEAN_ANOMALY":269.0897,"EPHEMERIS_TYPE":0,"CLASSIFICATION_TYPE":"U","NORAD_CAT_ID":49076,"ELEMENT_SET_NO":999,"REV_AT_EPOCH":19326,"BSTAR":0.0012851,"MEAN_MOTION_DOT":4.75e-6,"MEAN_MOTION_DDOT":0},{"OBJECT_NAME":"ONEWEB-0287","OBJECT_ID":"2021-075C","EPOCH":"2025-07-29T14:09:20.210400","MEAN_MOTION":13.17650278,"ECCENTRICITY":0.000142,"INCLINATION":87.9045,"RA_OF_ASC_NODE":70.0703,"ARG_OF_PERICENTER":93.0774,"MEAN_ANOMALY":267.052,"EPHEMERIS_TYPE":0,"CLASSIFICATION_TYPE":"U","NORAD_CAT_ID":49077,"ELEMENT_SET_NO":999,"REV_AT_EPOCH":19114,"BSTAR":0.00017222,"MEAN_MOTION_DOT":8.0e-7,"MEAN_MOTION_DDOT":0},{"OBJECT_NAME":"ONEWEB-0288","OBJECT_ID":"2021-075D","EPOCH":"2025-07-29T12:50:04.629120","MEAN_MOTION":13.12443539,"ECCENTRICITY":0.0001602,"INCLINATION":87.8853,"RA_OF_ASC_NODE":54.7988,"ARG_OF_PERICENTER":84.1758,"MEAN_ANOMALY":275.9553,"EPHEMERIS_TYPE":0,"CLASSIFICATION_TYPE":"U","NORAD_CAT_ID":49078,"ELEMENT_SET_NO":999,"REV_AT_EPOCH":19286,"BSTAR":-0.00031263,"MEAN_MOTION_DOT":-1.0e-6,"MEAN_MOTION_DDOT":0},{"OBJECT_NAME":"ONEWEB-0289","OBJECT_ID":"2021-075E","EPOCH":"2025-07-29T13:07:19.478208","MEAN_MOTION":13.17098386,"ECCENTRICITY":0.0001606,"INCLINATION":87.903,"RA_OF_ASC_NODE":70.1087,"ARG_OF_PERICENTER":66.1459,"MEAN_ANOMALY":293.9841,"EPHEMERIS_TYPE":0,"CLASSIFICATION_TYPE":"U","NORAD_CAT_ID":49079,"ELEMENT_SET_NO":999,"REV_AT_EPOCH":19171,"BSTAR":-0.00010702,"MEAN_MOTION_DOT":-2.8e-7,"MEAN_MOTION_DDOT":0}]
